[{"OBJECT_NAME":"OBJECT D","OBJECT_ID":"2024-203D","EPOCH":"2026-03-09T23:01:14.628576","MEAN_MOTION":15.25394324,"ECCENTRICITY":0.00105281,"INCLINATION":97.4343,"RA_OF_ASC_NODE":139.6527,"ARG_OF_PERICENTER":340.1906,"MEAN_ANOMALY":19.8921,"EPHEMERIS_TYPE":0,"CLASSIFICATION_TYPE":"U","NORAD_CAT_ID":61872,"ELEMENT_SET_NO":999,"REV_AT_EPOCH":7378,"BSTAR":0.00059366578,"MEAN_MOTION_DOT":0.00014956,"MEAN_MOTION_DDOT":0},{"OBJECT_NAME":"STARLINK-35974","OBJECT_ID":"2025-281Q","EPOCH":"2026-03-09T03:41:41.873568","MEAN_MOTION":15.27571682,"ECCENTRICITY":0.00018218,"INCLINATION":43.0029,"RA_OF_ASC_NODE":346.4961,"ARG_OF_PERICENTER":265.8098,"MEAN_ANOMALY":94.2545,"EPHEMERIS_TYPE":0,"CLASSIFICATION_TYPE":"U","NORAD_CAT_ID":66862,"ELEMENT_SET_NO":999,"REV_AT_EPOCH":1610,"BSTAR":0.0011520303,"MEAN_MOTION_DOT":0.00031567,"MEAN_MOTION_DDOT":0}]
